EYESAT A (AO-27)        
1 22825U 93061C   26194.15132455  .00000041  00000+0  32598-4 0  9991
2 22825  98.6869 261.5539 0008876  31.5428 328.6285 14.30948752710713
ITAMSAT (IO-26)         
1 22826U 93061D   26194.12298663  .00000033  00000+0  29299-4 0  9998
2 22826  98.6817 261.4457 0009086  15.3060 344.8396 14.31376322711028
RADIO ROSTO (RS15)      
1 23439U 94085A   26194.19057316 -.00000018  00000+0  68239-3 0  9991
2 23439  64.8159 261.1629 0156833 359.0766   0.9847 11.27583551298831
JAS-2 (FO-29)           
1 24278U 96046B   26193.52226945  .00000020  00000+0  54923-4 0  9992
2 24278  98.5221  38.9215 0350477  30.8650 331.2590 13.53275422476596
FORTE                   
1 24920U 97047A   26193.73277988  .00000044  00000+0  40997-4 0  9996
2 24920  69.9547 316.3191 0024401 246.4315 113.4244 14.27954846502331
TECHSAT 1B (GO-32)      
1 25397U 98043D   26193.91376981  .00000023  00000+0  29958-4 0  9996
2 25397  99.0083 187.3229 0002131 118.0072 242.1321 14.24433105454998
ISS (ZARYA)             
1 25544U 98067A   26194.12129675  .00004316  00000+0  86456-4 0  9991
2 25544  51.6304 171.7447 0006685 289.3803  70.6462 15.48996109575778
IMAGE                   
1 26113U 00017A   26191.39817865 -.00000042  00000+0  00000+0 0  9992
2 26113  94.2468 315.6762 7416054 285.1805   9.7435  1.68666826161896
CLUSTER II-FM7 (SAMBA)  
1 26410U 00041A   26192.68021872  .00012833  00000+0  00000+0 0  9997
2 26410 149.8437  55.3938 9082311 272.8334 359.6328  0.44896530 20420
CLUSTER II-FM8 (TANGO)  
1 26464U 00045B   26190.95011118  .00011224  00000+0  00000+0 0  9993
2 26464 150.0571  56.2797 9085123 273.5523   2.2662  0.44421537 20419
ODIN                    
1 26702U 01007A   26193.66099177  .00297616  00000+0  10674-2 0  9991
2 26702  97.3743 236.4394 0004667 145.8846 214.2726 15.88033839393425
OMNI-M1                 
1 26857U 01026A   26193.19830643  .00000023  00000+0  00000+0 0  9995
2 26857  44.8248 239.4989 0013564  57.5507 302.6467  3.92401929206557
PCSAT (NO-44)           
1 26931U 01043C   26193.93218525  .00000030  00000+0  42247-4 0  9990
2 26931  67.0492 177.6826 0005947 266.4002  93.6419 14.31964496294131
PROBA-1                 
1 26958U 01049B   26194.15527734  .00001584  00000+0  10501-3 0  9997
2 26958  97.9606 203.5954 0055896  36.4719 324.0294 15.07611032347532
SAUDISAT 1C (SO-50)     
1 27607U 02058C   26193.91399670  .00000395  00000+0  64575-4 0  9999
2 27607  64.5517  49.3840 0074595 257.6999 101.5749 14.83095930268271
CORIOLIS                
1 27640U 03001A   26193.91687179  .00000058  00000+0  47748-4 0  9998
2 27640  98.7134 200.4092 0014815 135.2927 224.9446 14.19951423217873
CUTE-1 (CO-55)          
1 27844U 03031E   26193.81805928  .00000160  00000+0  88191-4 0  9991
2 27844  98.6742 202.0549 0010788 108.7901 251.4449 14.24350634195326
CUBESAT XI-IV (CO-57)   
1 27848U 03031J   26193.53826736  .00000128  00000+0  75348-4 0  9998
2 27848  98.6772 201.4707 0010448 126.3839 233.8305 14.23633637194983
MOZHAETS 4 (RS22)       
1 27939U 03042A   26194.23068854  .00000359  00000+0  63498-4 0  9997
2 27939  98.3474  19.3269 0011036 179.4751 296.3671 14.73511286219387
